CSS (TIANHE)            
1 48274U 21035A   23178.86077616  .00023677  00000+0  29451-3 0  9996
2 48274  41.4741  91.0611 0006310 163.5837 196.5207 15.59380093123503
